OBJECT_NAME,OBJECT_ID,EPOCH,MEAN_MOTION,ECCENTRICITY,INCLINATION,RA_OF_ASC_NODE,ARG_OF_PERICENTER,MEAN_ANOMALY,EPHEMERIS_TYPE,CLASSIFICATION_TYPE,NORAD_CAT_ID,ELEMENT_SET_NO,REV_AT_EPOCH,BSTAR,MEAN_MOTION_DOT,MEAN_MOTION_DDOT
SITRO-AIS 9 (SHCHUKIN),2023-091AM,2026-07-07T12:04:49.402848,15.38910698,.0005876,97.5065,259.2547,12.5211,347.6179,0,U,57201,999,16787,.35209E-3,.13486E-3,0
UTMN 2 (RS27S),2023-091AP,2026-07-07T12:01:12.092160,15.32573713,.0007561,97.5074,256.0090,18.3435,341.8077,0,U,57203,999,16765,.27907E-3,.8706E-4,0
SITRO-AIS 12 (SMIRENNIY),2023-091AQ,2026-07-07T11:45:45.022752,15.39203506,.0005387,97.5079,259.7212,6.2833,353.8479,0,U,57204,999,16789,.35488E-3,.13723E-3,0
SITRO-AIS 11 (SHEFFER),2023-091AU,2026-07-07T11:56:52.753920,15.39644486,.0005289,97.5077,259.9886,5.8782,354.2525,0,U,57208,999,16791,.36828E-3,.14453E-3,0
H2SAT (HEINRICH HERTZ),2023-093A,2026-07-06T22:21:02.101248,1.00270676,.0001097,0.0143,103.1163,34.0278,123.7384,0,U,57213,999,1111,0,.17E-6,0
KUZGTU 1 (RS47S),2023-091AV,2026-07-07T10:31:00.468768,15.30350683,.00109,97.5051,253.1294,33.2258,326.9665,0,U,57217,999,16747,.29284E-3,.8534E-4,0
QIANKUN-1,2023-103B,2026-07-06T18:39:58.876128,16.07654573,.0036173,96.1484,231.2442,142.6775,217.7034,0,U,57422,999,17044,.22982E-3,.201077E-2,.20009E-4
FENGYUN 3F,2023-111A,2026-07-07T11:30:36.842112,14.19942570,.0001412,98.6828,258.1095,80.1372,279.9964,0,U,57490,999,15174,.27592E-4,.15E-6,0
HJ-2F,2023-116A,2026-07-07T11:53:55.900032,15.22622267,.0007422,97.3850,193.3639,344.2600,15.8404,0,U,57519,999,16184,.24361E-3,.5599E-4,0
XRISM,2023-137A,2026-07-07T10:47:54.508416,15.12636487,.0007816,31.0012,228.3319,168.6403,191.4413,0,U,57800,999,15593,.13601E-3,.2535E-4,0
METEOR-M2 4,2024-039A,2026-07-07T12:17:39.733152,14.22431618,.0008167,98.7020,147.5558,107.8475,252.3594,0,U,59051,999,12215,.24254E-4,.1E-6,0
GRBBETA,2024-128C,2026-07-07T11:04:37.710048,15.06772780,.0037997,61.9890,145.1259,138.9442,221.4522,0,U,60237,999,10932,.17646E-3,.246E-4,0
TRANSPORTER-11 OBJECT A,2024-149A,2026-07-06T05:06:19.992096,15.33239338,.00044079,97.3721,267.0866,139.2620,220.8952,0,U,60468,999,10497,.26910686E-3,.8567E-4,0
WARATAH SEED-1,2024-149B,2026-07-06T17:13:38.601696,15.36467018,.0002876,97.3680,268.3167,137.0194,223.1275,0,U,60469,999,10511,.30288E-3,.10699E-3,0
PHISAT 2,2024-149C,2026-07-07T12:02:56.741568,15.31348005,.0002791,97.3746,267.6081,136.1446,224.0017,0,U,60470,999,10510,.16868E-3,.5029E-4,0
LEMUR-2-TOMATOKECHUP,2024-149D,2026-07-06T17:07:24.161376,15.36460405,.0002908,97.3789,269.8148,137.9028,222.2440,0,U,60471,999,10516,.255E-3,.8991E-4,0
CONNECTA IOT-1,2024-149E,2026-07-07T01:28:08.449824,15.23700125,.0002099,97.3745,264.0177,159.6473,200.4848,0,U,60472,999,10482,.13548E-3,.3182E-4,0
LOPEN,2024-149F,2026-07-07T11:14:46.826592,15.40304119,.0002348,97.3769,272.0026,147.4416,212.6975,0,U,60473,999,10538,.27898E-3,.11162E-3,0
ROCK,2024-149G,2026-07-06T05:18:08.296704,15.40266018,.00025745,97.3764,270.7588,149.0840,211.0558,0,U,60474,999,10519,.3975941E-3,.15933E-3,0
CONNECTA IOT-3,2024-149H,2026-07-07T00:24:07.305408,15.23712963,.0003196,97.3723,263.7215,164.5681,195.5654,0,U,60475,999,10482,.14625E-3,.3442E-4,0
QUBE,2024-149J,2026-07-06T16:47:31.447392,15.48202046,.0003101,97.3769,274.5214,148.1376,212.0063,0,U,60476,999,10548,.42036E-3,.22064E-3,0
WREN-1,2024-149L,2026-07-06T17:35:24.041760,15.42378651,.0004817,97.3757,272.0607,176.6834,183.4446,0,U,60478,999,10533,.37844E-3,.16268E-3,0
TOMORROW-S1,2024-149M,2026-07-06T17:17:21.606144,15.33010122,.0003475,97.3741,268.1341,150.7548,209.3890,0,U,60479,999,10508,.18694E-3,.5883E-4,0
FLOCK 4BE-18,2024-149N,2026-07-06T16:14:03.628032,15.42564534,.0004418,97.3719,271.6184,172.5556,187.5758,0,U,60480,999,10531,.34412E-3,.14874E-3,0
FLOCK 4BE-7,2024-149P,2026-07-07T00:38:55.042080,15.41201300,.0003703,97.3750,271.2759,170.7325,189.3991,0,U,60481,999,10530,.44899E-3,.18577E-3,0
TOMORROW-S2,2024-149T,2026-07-07T11:14:30.954048,15.33063560,.0003136,97.3811,269.3886,169.0111,191.1200,0,U,60485,999,10519,.17246E-3,.5429E-4,0
FLOCK 4BE-36,2024-149U,2026-07-07T00:37:59.986272,15.43353640,.0004141,97.3735,272.7003,175.2705,184.8583,0,U,60486,999,10541,.29345E-3,.13008E-3,0
FLOCK 4BE-25,2024-149V,2026-07-07T04:15:51.501024,15.39388814,.0003132,97.3790,271.4701,160.0470,200.0899,0,U,60487,999,10531,.27493E-3,.10672E-3,0
